[{"OBJECT_NAME":"TROLL","OBJECT_ID":"2025-009BB","EPOCH":"2026-03-09T05:24:19.835712","MEAN_MOTION":15.28164315,"ECCENTRICITY":0.00018165,"INCLINATION":97.3932,"RA_OF_ASC_NODE":150.7169,"ARG_OF_PERICENTER":59.185,"MEAN_ANOMALY":300.9568,"EPHEMERIS_TYPE":0,"CLASSIFICATION_TYPE":"U","NORAD_CAT_ID":62658,"ELEMENT_SET_NO":999,"REV_AT_EPOCH":11817,"BSTAR":0.00048220305,"MEAN_MOTION_DOT":0.00013174,"MEAN_MOTION_DDOT":0},{"OBJECT_NAME":"STARLINK-35426","OBJECT_ID":"2025-259V","EPOCH":"2026-03-08T23:28:12.081504","MEAN_MOTION":15.2761148,"ECCENTRICITY":0.00022721,"INCLINATION":43.003,"RA_OF_ASC_NODE":278.2576,"ARG_OF_PERICENTER":278.3776,"MEAN_ANOMALY":81.6818,"EPHEMERIS_TYPE":0,"CLASSIFICATION_TYPE":"U","NORAD_CAT_ID":66441,"ELEMENT_SET_NO":999,"REV_AT_EPOCH":1938,"BSTAR":0.001072099,"MEAN_MOTION_DOT":0.00029387,"MEAN_MOTION_DDOT":0}]
